{
    "links": {
        "self": "http://www.neowsapp.com/rest/v1/neo/54050970?api_key=iIulBulltgU6a56xZRHN4H3l9WmuAYTsLGpBGhQ2"
    },
    "id": "54050970",
    "neo_reference_id": "54050970",
    "name": "(2020 PT)",
    "designation": "2020 PT",
    "nasa_jpl_url": "http://ssd.jpl.nasa.gov/sbdb.cgi?sstr=54050970",
    "absolute_magnitude_h": 25.459,
    "estimated_diameter": {
        "kilometers": {
            "estimated_diameter_min": 0.0215156751,
            "estimated_diameter_max": 0.048110512
        },
        "meters": {
            "estimated_diameter_min": 21.5156750536,
            "estimated_diameter_max": 48.1105120016
        },
        "miles": {
            "estimated_diameter_min": 0.0133692165,
            "estimated_diameter_max": 0.029894477
        },
        "feet": {
            "estimated_diameter_min": 70.5894873427,
            "estimated_diameter_max": 157.8428921952
        }
    },
    "is_potentially_hazardous_asteroid": false,
    "close_approach_data": [
        {
            "close_approach_date": "2020-08-06",
            "close_approach_date_full": "2020-Aug-06 07:21",
            "epoch_date_close_approach": 1596698460000,
            "relative_velocity": {
                "kilometers_per_second": "7.5712053653",
                "kilometers_per_hour": "27256.3393149186",
                "miles_per_hour": "16936.0292815393"
            },
            "miss_distance": {
                "astronomical": "0.0276708077",
                "lunar": "10.7639441953",
                "kilometers": "4139493.893099599",
                "miles": "2572162.2324245062"
            },
            "orbiting_body": "Earth"
        }
    ],
    "orbital_data": {
        "orbit_id": "3",
        "orbit_determination_date": "2020-10-06 06:29:13",
        "first_observation_date": "2020-08-10",
        "last_observation_date": "2020-08-12",
        "data_arc_in_days": 2,
        "observations_used": 29,
        "orbit_uncertainty": "8",
        "minimum_orbit_intersection": ".0232098",
        "jupiter_tisserand_invariant": "4.705",
        "epoch_osculation": "2459072.5",
        "eccentricity": ".2585090545734991",
        "semi_major_axis": "1.396070247064789",
        "inclination": "12.31227759161286",
        "ascending_node_longitude": "315.246388482867",
        "orbital_period": "602.503167144487",
        "perihelion_distance": "1.035173447377879",
        "perihelion_argument": "8.200192520088262",
        "aphelion_distance": "1.756967046751699",
        "perihelion_time": "2459076.028330240024",
        "mean_anomaly": "357.891797162779",
        "mean_motion": ".5975072325448341",
        "equinox": "J2000",
        "orbit_class": {
            "orbit_class_type": "AMO",
            "orbit_class_description": "Near-Earth asteroid orbits similar to that of 1221 Amor",
            "orbit_class_range": "1.017 AU < q (perihelion) < 1.3 AU"
        }
    },
    "is_sentry_object": false
}